start=new Date('2022-06-01T00:00:00.000Z').valueOf();
sats=[{"PERIAPSIS":"545.818","FILE":"3473738","BSTAR":"-0.00217600000000","ECCENTRICITY":"0.00019830","NORAD_CAT_ID":"48683","SITE":"AFETR","RCS_SIZE":"LARGE","PERIOD":"95.592","EPOCH":"2022-05-31T14:00:01.000224","REF_FRAME":"TEME","INCLINATION":"53.0534","ELEMENT_SET_NO":"999","CENTER_NAME":"EARTH","MEAN_MOTION_DDOT":"0.0000000000000","SEMIMAJOR_AXIS":"6925.326","TLE_LINE2":"2 48683  53.0534 138.1924 0001983  53.1060 301.8545 15.06407396 57532","ARG_OF_PERICENTER":"53.1060","APOAPSIS":"548.564","RA_OF_ASC_NODE":"138.1924","OBJECT_ID":"2021-044AX","EPHEMERIS_TYPE":"0","OBJECT_NAME":"STARLINK-2756","OBJECT_TYPE":"PAYLOAD","MEAN_ELEMENT_THEORY":"SGP4","DECAY_DATE":null,"MEAN_MOTION":"15.06407396","MEAN_ANOMALY":"301.8545","REV_AT_EPOCH":"5753","MEAN_MOTION_DOT":"-0.00032553","TIME_SYSTEM":"UTC","COUNTRY_CODE":"US","LAUNCH_DATE":"2021-05-26","TLE_LINE1":"1 48683U 21044AX  22151.58334491 -.00032553  00000-0 -21760-2 0  9996","GP_ID":"204997905","CLASSIFICATION_TYPE":"U"},{"SEMIMAJOR_AXIS":"6932.844","MEAN_MOTION_DDOT":"0.0000000000000","RA_OF_ASC_NODE":"155.4805","APOAPSIS":"556.012","ARG_OF_PERICENTER":"48.4448","TLE_LINE2":"2 48684  53.0536 155.4805 0001879  48.4448 311.6700 15.03957575 56410","INCLINATION":"53.0536","REF_FRAME":"TEME","CENTER_NAME":"EARTH","ELEMENT_SET_NO":"999","SITE":"AFETR","NORAD_CAT_ID":"48684","EPOCH":"2022-05-31T03:19:09.947712","RCS_SIZE":"LARGE","PERIOD":"95.747","FILE":"3474118","PERIAPSIS":"553.407","ECCENTRICITY":"0.00018790","BSTAR":"0.00011842000000","LAUNCH_DATE":"2021-05-26","TLE_LINE1":"1 48684U 21044AY  22151.13830958  .00001377  00000-0  11842-3 0  9996","CLASSIFICATION_TYPE":"U","GP_ID":"205029171","TIME_SYSTEM":"UTC","COUNTRY_CODE":"US","MEAN_MOTION_DOT":"0.00001377","MEAN_MOTION":"15.03957575","DECAY_DATE":null,"MEAN_ELEMENT_THEORY":"SGP4","REV_AT_EPOCH":"5641","MEAN_ANOMALY":"311.6700","EPHEMERIS_TYPE":"0","OBJECT_ID":"2021-044AY","OBJECT_TYPE":"PAYLOAD","OBJECT_NAME":"STARLINK-2741"},{"DECAY_DATE":null,"MEAN_ELEMENT_THEORY":"SGP4","MEAN_MOTION":"15.06409646","REV_AT_EPOCH":"5753","MEAN_ANOMALY":"83.2814","OBJECT_ID":"2021-044AZ","EPHEMERIS_TYPE":"0","OBJECT_NAME":"STARLINK-2751","OBJECT_TYPE":"PAYLOAD","LAUNCH_DATE":"2021-05-26","TLE_LINE1":"1 48685U 21044AZ  22151.58334491 -.00027149  00000-0 -18102-2 0  9999","GP_ID":"204998473","CLASSIFICATION_TYPE":"U","MEAN_MOTION_DOT":"-0.00027149","TIME_SYSTEM":"UTC","COUNTRY_CODE":"US","NORAD_CAT_ID":"48685","SITE":"AFETR","PERIOD":"95.592","RCS_SIZE":"LARGE","EPOCH":"2022-05-31T14:00:01.000224","PERIAPSIS":"546.037","FILE":"3473775","BSTAR":"-0.00181020000000","ECCENTRICITY":"0.00016560","MEAN_MOTION_DDOT":"0.0000000000000","SEMIMAJOR_AXIS":"6925.319","TLE_LINE2":"2 48685  53.0532 138.2270 0001656  66.5050  83.2814 15.06409646 57531","ARG_OF_PERICENTER":"66.5050","RA_OF_ASC_NODE":"138.2270","APOAPSIS":"548.331","REF_FRAME":"TEME","INCLINATION":"53.0532","ELEMENT_SET_NO":"999","CENTER_NAME":"EARTH"},{"FILE":"3473055","PERIAPSIS":"553.178","ECCENTRICITY":"0.00021720","BSTAR":"-0.00106630000000","SITE":"AFETR","NORAD_CAT_ID":"48686","PERIOD":"95.747","RCS_SIZE":"LARGE","EPOCH":"2022-05-31T06:00:02.000160","INCLINATION":"53.0540","REF_FRAME":"TEME","CENTER_NAME":"EARTH","ELEMENT_SET_NO":"999","MEAN_MOTION_DDOT":"0.0000000000000","SEMIMAJOR_AXIS":"6932.819","APOAPSIS":"556.190","RA_OF_ASC_NODE":"144.8162","TLE_LINE2":"2 48686  53.0540 144.8162 0002172  43.4314 203.5912 15.03965899 57478","ARG_OF_PERICENTER":"43.4314","EPHEMERIS_TYPE":"0","OBJECT_ID":"2021-044BA","OBJECT_TYPE":"PAYLOAD","OBJECT_NAME":"STARLINK-2629","MEAN_MOTION":"15.03965899","MEAN_ELEMENT_THEORY":"SGP4","DECAY_DATE":null,"REV_AT_EPOCH":"5747","MEAN_ANOMALY":"203.5912","COUNTRY_CODE":"US","TIME_SYSTEM":"UTC","MEAN_MOTION_DOT":"-0.00015122","TLE_LINE1":"1 48686U 21044BA  22151.25002315 -.00015122  00000-0 -10663-2 0  9993","LAUNCH_DATE":"2021-05-26","CLASSIFICATION_TYPE":"U","GP_ID":"204982346"},{"NORAD_CAT_ID":"48687","SITE":"AFETR","EPOCH":"2022-05-31T14:00:01.000224","RCS_SIZE":"LARGE","PERIOD":"95.592","PERIAPSIS":"545.952","FILE":"3473773","BSTAR":"-0.00235600000000","ECCENTRICITY":"0.00018210","MEAN_MOTION_DDOT":"0.0000000000000","SEMIMAJOR_AXIS":"6925.348","TLE_LINE2":"2 48687  53.0528 133.1903 0001821  51.0824 266.3316 15.06400172 57601","ARG_OF_PERICENTER":"51.0824","RA_OF_ASC_NODE":"133.1903","APOAPSIS":"548.474","REF_FRAME":"TEME","INCLINATION":"53.0528","ELEMENT_SET_NO":"999","CENTER_NAME":"EARTH","DECAY_DATE":null,"MEAN_ELEMENT_THEORY":"SGP4","MEAN_MOTION":"15.06400172","REV_AT_EPOCH":"5760","MEAN_ANOMALY":"266.3316","OBJECT_ID":"2021-044BB","EPHEMERIS_TYPE":"0","OBJECT_TYPE":"PAYLOAD","OBJECT_NAME":"STARLINK-2627","LAUNCH_DATE":"2021-05-26","TLE_LINE1":"1 48687U 21044BB  22151.58334491 -.00035202  00000-0 -23560-2 0  9994","GP_ID":"204998645","CLASSIFICATION_TYPE":"U","MEAN_MOTION_DOT":"-0.00035202","TIME_SYSTEM":"UTC","COUNTRY_CODE":"US"},{"OBJECT_ID":"2021-044BC","EPHEMERIS_TYPE":"0","OBJECT_NAME":"STARLINK-2742","OBJECT_TYPE":"PAYLOAD","MEAN_ELEMENT_THEORY":"SGP4","DECAY_DATE":null,"MEAN_MOTION":"15.06395312","REV_AT_EPOCH":"130","MEAN_ANOMALY":"222.7574","MEAN_MOTION_DOT":"-0.00005746","TIME_SYSTEM":"UTC","COUNTRY_CODE":"US","LAUNCH_DATE":"2021-05-26","TLE_LINE1":"1 48688U 21044BC  22151.25002315 -.00005746  00000-0 -36718-3 0  9996","GP_ID":"205029671","CLASSIFICATION_TYPE":"U","PERIAPSIS":"546.086","FILE":"3474118","BSTAR":"-0.00036718000000","ECCENTRICITY":"0.00016490","NORAD_CAT_ID":"48688","SITE":"AFETR","EPOCH":"2022-05-31T06:00:02.000160","RCS_SIZE":"LARGE","PERIOD":"95.592","REF_FRAME":"TEME","INCLINATION":"53.0533","ELEMENT_SET_NO":"999","CENTER_NAME":"EARTH","SEMIMAJOR_AXIS":"6925.363","MEAN_MOTION_DDOT":"0.0000000000000","ARG_OF_PERICENTER":"65.9984","TLE_LINE2":"2 48688  53.0533 134.6710 0001649  65.9984 222.7574 15.06395312  1306","APOAPSIS":"548.370","RA_OF_ASC_NODE":"134.6710"},{"GP_ID":"204999056","CLASSIFICATION_TYPE":"U","LAUNCH_DATE":"2021-05-26","TLE_LINE1":"1 48689U 21044BD  22151.58334491 -.00069791  00000-0 -47096-2 0  9996","MEAN_MOTION_DOT":"-0.00069791","TIME_SYSTEM":"UTC","COUNTRY_CODE":"US","REV_AT_EPOCH":"5753","MEAN_ANOMALY":"221.0129","DECAY_DATE":null,"MEAN_ELEMENT_THEORY":"SGP4","MEAN_MOTION":"15.06422518","OBJECT_TYPE":"PAYLOAD","OBJECT_NAME":"STARLINK-2617","OBJECT_ID":"2021-044BD","EPHEMERIS_TYPE":"0","TLE_LINE2":"2 48689  53.0541 138.1536 0001820  48.9073 221.0129 15.06422518 57535","ARG_OF_PERICENTER":"48.9073","RA_OF_ASC_NODE":"138.1536","APOAPSIS":"548.405","MEAN_MOTION_DDOT":"0.0000000000000","SEMIMAJOR_AXIS":"6925.280","ELEMENT_SET_NO":"999","CENTER_NAME":"EARTH","REF_FRAME":"TEME","INCLINATION":"53.0541","RCS_SIZE":"LARGE","EPOCH":"2022-05-31T14:00:01.000224","PERIOD":"95.591","NORAD_CAT_ID":"48689","SITE":"AFETR","BSTAR":"-0.00470960000000","ECCENTRICITY":"0.00018200","PERIAPSIS":"545.884","FILE":"3473757"},{"REF_FRAME":"TEME","INCLINATION":"53.0537","ELEMENT_SET_NO":"999","CENTER_NAME":"EARTH","SEMIMAJOR_AXIS":"6925.348","MEAN_MOTION_DDOT":"0.0000000000000","TLE_LINE2":"2 48690  53.0537 148.1843 0001858  54.4818 180.3041 15.06400178 57453","ARG_OF_PERICENTER":"54.4818","APOAPSIS":"548.500","RA_OF_ASC_NODE":"148.1843","PERIAPSIS":"545.926","FILE":"3473814","BSTAR":"-0.00151210000000","ECCENTRICITY":"0.00018580","NORAD_CAT_ID":"48690","SITE":"AFETR","PERIOD":"95.592","RCS_SIZE":"LARGE","EPOCH":"2022-05-31T14:00:01.000224","MEAN_MOTION_DOT":"-0.00022733","COUNTRY_CODE":"US","TIME_SYSTEM":"UTC","TLE_LINE1":"1 48690U 21044BE  22151.58334491 -.00022733  00000-0 -15121-2 0  9997","LAUNCH_DATE":"2021-05-26","GP_ID":"204999540","CLASSIFICATION_TYPE":"U","OBJECT_ID":"2021-044BE","EPHEMERIS_TYPE":"0","OBJECT_NAME":"STARLINK-2740","OBJECT_TYPE":"PAYLOAD","MEAN_ELEMENT_THEORY":"SGP4","DECAY_DATE":null,"MEAN_MOTION":"15.06400178","REV_AT_EPOCH":"5745","MEAN_ANOMALY":"180.3041"},{"REF_FRAME":"TEME","INCLINATION":"53.0558","ELEMENT_SET_NO":"999","CENTER_NAME":"EARTH","SEMIMAJOR_AXIS":"6925.392","MEAN_MOTION_DDOT":"0.0000000000000","TLE_LINE2":"2 48691  53.0558 141.6858 0001879  56.6825 334.3415 15.06385689 57518","ARG_OF_PERICENTER":"56.6825","APOAPSIS":"548.559","RA_OF_ASC_NODE":"141.6858","PERIAPSIS":"545.956","FILE":"3474382","BSTAR":"0.00261540000000","ECCENTRICITY":"0.00018790","NORAD_CAT_ID":"48691","SITE":"AFETR","RCS_SIZE":"LARGE","PERIOD":"95.593","EPOCH":"2022-05-31T22:00:00.999936","MEAN_MOTION_DOT":"0.00038876","COUNTRY_CODE":"US","TIME_SYSTEM":"UTC","LAUNCH_DATE":"2021-05-26","TLE_LINE1":"1 48691U 21044BF  22151.91667824  .00038876  00000-0  26154-2 0  9995","GP_ID":"205037534","CLASSIFICATION_TYPE":"U","OBJECT_ID":"2021-044BF","EPHEMERIS_TYPE":"0","OBJECT_NAME":"STARLINK-2750","OBJECT_TYPE":"PAYLOAD","MEAN_ELEMENT_THEORY":"SGP4","DECAY_DATE":null,"MEAN_MOTION":"15.06385689","REV_AT_EPOCH":"5751","MEAN_ANOMALY":"334.3415"},{"SEMIMAJOR_AXIS":"6925.396","MEAN_MOTION_DDOT":"0.0000000000000","RA_OF_ASC_NODE":"141.8019","APOAPSIS":"548.288","TLE_LINE2":"2 48692  53.0544 141.8019 0001483  64.0599  46.7753 15.06384527 57516","ARG_OF_PERICENTER":"64.0599","INCLINATION":"53.0544","REF_FRAME":"TEME","CENTER_NAME":"EARTH","ELEMENT_SET_NO":"999","SITE":"AFETR","NORAD_CAT_ID":"48692","EPOCH":"2022-05-31T22:00:00.999936","RCS_SIZE":"LARGE","PERIOD":"95.593","FILE":"3474512","PERIAPSIS":"546.234","ECCENTRICITY":"0.00014830","BSTAR":"0.00115760000000","TLE_LINE1":"1 48692U 21044BG  22151.91667824  .00016996  00000-0  11576-2 0  9997","LAUNCH_DATE":"2021-05-26","CLASSIFICATION_TYPE":"U","GP_ID":"205040361","TIME_SYSTEM":"UTC","COUNTRY_CODE":"US","MEAN_MOTION_DOT":"0.00016996","MEAN_MOTION":"15.06384527","DECAY_DATE":null,"MEAN_ELEMENT_THEORY":"SGP4","REV_AT_EPOCH":"5751","MEAN_ANOMALY":"46.7753","EPHEMERIS_TYPE":"0","OBJECT_ID":"2021-044BG","OBJECT_TYPE":"PAYLOAD","OBJECT_NAME":"STARLINK-2752"}];
